[{"OBJECT_NAME":"OBJECT B","OBJECT_ID":"2023-189B","EPOCH":"2026-03-09T23:19:13.152000","MEAN_MOTION":15.72871024,"ECCENTRICITY":0.00049112,"INCLINATION":97.414,"RA_OF_ASC_NODE":101.6861,"ARG_OF_PERICENTER":172.6117,"MEAN_ANOMALY":187.522,"EPHEMERIS_TYPE":0,"CLASSIFICATION_TYPE":"U","NORAD_CAT_ID":58503,"ELEMENT_SET_NO":999,"REV_AT_EPOCH":12706,"BSTAR":0.00074828171,"MEAN_MOTION_DOT":0.00102221,"MEAN_MOTION_DDOT":0},{"OBJECT_NAME":"STARLINK-11514 [DTC]","OBJECT_ID":"2025-004D","EPOCH":"2026-03-09T03:26:51.302112","MEAN_MOTION":15.70889057,"ECCENTRICITY":6.029e-5,"INCLINATION":42.9972,"RA_OF_ASC_NODE":73.9328,"ARG_OF_PERICENTER":196.8324,"MEAN_ANOMALY":163.2523,"EPHEMERIS_TYPE":0,"CLASSIFICATION_TYPE":"U","NORAD_CAT_ID":62514,"ELEMENT_SET_NO":999,"REV_AT_EPOCH":6712,"BSTAR":0.0019918846,"MEAN_MOTION_DOT":0.00263973,"MEAN_MOTION_DDOT":0}]
